<?xml version="1.0" encoding="UTF-8"?>
<gpx version="1.1" creator="OpenBryton Test" xmlns="http://www.topografix.com/GPX/1/1">
  <trk>
    <name>Sample Cycling Route</name>
    <trkseg>
      <trkpt lat="-6.20000" lon="106.81666"><ele>15.0</ele></trkpt>
      <trkpt lat="-6.20100" lon="106.81666"><ele>15.1</ele></trkpt>
      <trkpt lat="-6.20200" lon="106.81666"><ele>15.2</ele></trkpt>
      <trkpt lat="-6.20300" lon="106.81666"><ele>15.3</ele></trkpt>
      <!-- 90-degree right turn onto Eastbound street -->
      <trkpt lat="-6.20300" lon="106.81750"><ele>16.0</ele></trkpt>
      <trkpt lat="-6.20300" lon="106.81850"><ele>16.1</ele></trkpt>
      <trkpt lat="-6.20300" lon="106.81950"><ele>16.2</ele></trkpt>
      <!-- 45-degree slight left turn -->
      <trkpt lat="-6.20230" lon="106.82020"><ele>17.0</ele></trkpt>
      <trkpt lat="-6.20160" lon="106.82090"><ele>17.2</ele></trkpt>
      <trkpt lat="-6.20090" lon="106.82160"><ele>17.5</ele></trkpt>
      <!-- 90-degree sharp left turn onto Northbound street -->
      <trkpt lat="-6.20000" lon="106.82160"><ele>18.0</ele></trkpt>
      <trkpt lat="-6.19900" lon="106.82160"><ele>18.2</ele></trkpt>
      <trkpt lat="-6.19800" lon="106.82160"><ele>18.5</ele></trkpt>
    </trkseg>
  </trk>
</gpx>
